TANSTAAFL-2             
1 62378U 24247B   26067.20753490  .00013897  00000+0  50872-3 0  9998
2 62378  44.9880 125.0934 0003072 298.8909  61.1666 15.28016845 67506
STARLINK-36441          
1 67469U 26008AA  26068.59174816  .00023438  00000+0  85882-3 0  9994
2 67469  42.9987 206.0758 0001634 278.6295  81.4372 15.27568643  9555
